GOES 1 (SMS-C) [-]      
1 08366U 75100A   23333.43564032  .00000065  00000+0  00000+0 0  9996
2 08366   6.9735 289.0697 0003752 303.0624 223.8442  1.00268433175871
GOES 2 [-]              
1 10061U 77048A   23333.39077292 -.00000003  00000+0  00000+0 0  9999
2 10061   8.6320 301.6650 0011207  28.0878  73.9932  0.99399781114266
GOES 3 [-]              
1 10953U 78062A   23332.74264598 -.00000204  00000+0  00000+0 0  9994
2 10953   9.0119 306.5928 0001701 237.4695 139.1540  0.99365047119285
GOES 4 [-]              
1 11964U 80074A   23332.70671073 -.00000222  00000+0  00000+0 0  9999
2 11964  10.0157 310.4284 0030600  87.4559  91.1804  0.99234337118199
GOES 5 [-]              
1 12472U 81049A   23332.57640156  .00000046  00000+0  00000+0 0  9993
2 12472  11.0320 322.2701 0002640 254.7711 289.5332  1.00220034113505
GOES 6 [-]              
1 14050U 83041A   23332.57587943  .00000054  00000+0  00000+0 0  9994
2 14050  11.6837 327.7040 0003735 198.0280 337.7847  1.00246754206676
GOES 7 [-]              
1 17561U 87022A   23332.58127486 -.00000068  00000+0  00000+0 0  9996
2 17561  13.7783 344.3644 0002169  83.0589 105.8020  0.99891069117657
GOES 8 [-]              
1 23051U 94022A   23332.52145564 -.00000076  00000+0  00000+0 0  9995
2 23051  13.6285  20.4649 0002414  64.4152  88.0762  0.98903698114915
GOES 9 [-]              
1 23581U 95025A   23332.95599881 -.00000240  00000+0  00000+0 0  9992
2 23581  13.1314  21.0022 0006793 152.8905 218.8479  0.98802071103554
GOES 10 [-]             
1 24786U 97019A   23332.43860347 -.00000069  00000+0  00000+0 0  9995
2 24786  12.0267  27.3924 0030230 213.1247 258.3211  0.99122097 96839
GOES 11 [-]             
1 26352U 00022A   23332.02623003 -.00000221  00000+0  00000+0 0  9995
2 26352   9.8104  54.9727 0004559 196.4781 171.8480  0.99045147 43246
GOES 12 [-]             
1 26871U 01031A   23333.06507740  .00000043  00000+0  00000+0 0  9997
2 26871  10.4768  44.5694 0004864 276.0416 206.5803  0.99134018 81505
EWS-G1 (GOES 13) [+]    
1 29155U 06018A   23333.02587809 -.00000227  00000+0  00000+0 0  9990
2 29155   1.9479  88.4609 0019409 231.9044  88.0511  0.98976668 64175
GOES 14 [B]             
1 35491U 09033A   23332.86665341 -.00000056  00000+0  00000+0 0  9999
2 35491   0.2042 260.4231 0001533 290.5427  79.9236  1.00271638 52776
GOES 15 [B]             
1 36411U 10008A   23332.75674497  .00000048  00000+0  00000+0 0  9996
2 36411   0.2029 273.1691 0006189 338.4654 149.5714  1.00264915 50303
GOES 16 [+]             
1 41866U 16071A   23332.58693133 -.00000239  00000+0  00000+0 0  9994
2 41866   0.0355 264.5294 0001367  18.9750 279.8272  1.00271225 25766
GOES 17 [+]             
1 43226U 18022A   23331.93633556 -.00000081  00000+0  00000+0 0  9990
2 43226   0.0105  78.1962 0002104 159.1385  61.6752  1.00271390 21077
GOES 18 [+]             
1 51850U 22021A   23331.92989588  .00000106  00000+0  00000+0 0  9991
2 51850   0.0116  74.9720 0000530 149.5280  39.8442  1.00270516  6430
